[{"OBJECT_NAME":"STARLINK-36058","OBJECT_ID":"2025-270D","EPOCH":"2026-03-09T00:36:56.109888","MEAN_MOTION":15.27622806,"ECCENTRICITY":0.0002099,"INCLINATION":43.0067,"RA_OF_ASC_NODE":59.9879,"ARG_OF_PERICENTER":168.5594,"MEAN_ANOMALY":191.5306,"EPHEMERIS_TYPE":0,"CLASSIFICATION_TYPE":"U","NORAD_CAT_ID":66591,"ELEMENT_SET_NO":999,"REV_AT_EPOCH":1760,"BSTAR":0.0012509606,"MEAN_MOTION_DOT":0.00034368,"MEAN_MOTION_DDOT":0},{"OBJECT_NAME":"OBJECT P","OBJECT_ID":"2018-099P","EPOCH":"2026-03-09T16:35:55.790016","MEAN_MOTION":15.30834106,"ECCENTRICITY":0.00076856,"INCLINATION":97.4366,"RA_OF_ASC_NODE":131.9195,"ARG_OF_PERICENTER":276.7627,"MEAN_ANOMALY":83.2739,"EPHEMERIS_TYPE":0,"CLASSIFICATION_TYPE":"U","NORAD_CAT_ID":43771,"ELEMENT_SET_NO":999,"REV_AT_EPOCH":39830,"BSTAR":0.00063632878,"MEAN_MOTION_DOT":0.00018926,"MEAN_MOTION_DDOT":0}]
